{
    "links": {
        "self": "http://www.neowsapp.com/rest/v1/neo/3637424?api_key=iIulBulltgU6a56xZRHN4H3l9WmuAYTsLGpBGhQ2"
    },
    "id": "3637424",
    "neo_reference_id": "3637424",
    "name": "(2013 JY2)",
    "designation": "2013 JY2",
    "nasa_jpl_url": "http://ssd.jpl.nasa.gov/sbdb.cgi?sstr=3637424",
    "absolute_magnitude_h": 22.5,
    "estimated_diameter": {
        "kilometers": {
            "estimated_diameter_min": 0.0840533402,
            "estimated_diameter_max": 0.1879489824
        },
        "meters": {
            "estimated_diameter_min": 84.0533402073,
            "estimated_diameter_max": 187.9489824394
        },
        "miles": {
            "estimated_diameter_min": 0.0522283081,
            "estimated_diameter_max": 0.1167860472
        },
        "feet": {
            "estimated_diameter_min": 275.7655606856,
            "estimated_diameter_max": 616.6305395464
        }
    },
    "is_potentially_hazardous_asteroid": false,
    "close_approach_data": [
        {
            "close_approach_date": "2013-05-07",
            "close_approach_date_full": "2013-May-07 00:08",
            "epoch_date_close_approach": 1367885280000,
            "relative_velocity": {
                "kilometers_per_second": "18.4151237113",
                "kilometers_per_hour": "66294.4453606786",
                "miles_per_hour": "41192.7902298061"
            },
            "miss_distance": {
                "astronomical": "0.0566022007",
                "lunar": "22.0182560723",
                "kilometers": "8467568.662032509",
                "miles": "5261503.1874422642"
            },
            "orbiting_body": "Earth"
        }
    ],
    "orbital_data": {
        "orbit_id": "11",
        "orbit_determination_date": "2017-04-06 08:45:58",
        "first_observation_date": "2013-05-03",
        "last_observation_date": "2013-05-08",
        "data_arc_in_days": 5,
        "observations_used": 89,
        "orbit_uncertainty": "8",
        "minimum_orbit_intersection": ".0477172",
        "jupiter_tisserand_invariant": "3.333",
        "epoch_osculation": "2456417.5",
        "eccentricity": ".5341300113769241",
        "semi_major_axis": "2.19272513470887",
        "inclination": "28.99672383249546",
        "ascending_node_longitude": "46.52686460375038",
        "orbital_period": "1185.972773901595",
        "perihelion_distance": "1.021524833560354",
        "perihelion_argument": "206.2776818505683",
        "aphelion_distance": "3.363925435857386",
        "perihelion_time": "2456440.677861967485",
        "mean_anomaly": "352.9643997805746",
        "mean_motion": ".3035482836723793",
        "equinox": "J2000",
        "orbit_class": {
            "orbit_class_type": "AMO",
            "orbit_class_description": "Near-Earth asteroid orbits similar to that of 1221 Amor",
            "orbit_class_range": "1.017 AU < q (perihelion) < 1.3 AU"
        }
    },
    "is_sentry_object": false
}